[{"OBJECT_NAME":"STARLINK-2686","OBJECT_ID":"2021-040AN","EPOCH":"2026-03-10T00:00:02.999808","MEAN_MOTION":15.27531462,"ECCENTRICITY":8.913e-5,"INCLINATION":53.1481,"RA_OF_ASC_NODE":189.2989,"ARG_OF_PERICENTER":67.5611,"MEAN_ANOMALY":257.1176,"EPHEMERIS_TYPE":0,"CLASSIFICATION_TYPE":"U","NORAD_CAT_ID":48464,"ELEMENT_SET_NO":999,"REV_AT_EPOCH":574,"BSTAR":0.050147817,"MEAN_MOTION_DOT":0.01497871,"MEAN_MOTION_DDOT":0},{"OBJECT_NAME":"KUIPER-00198","OBJECT_ID":"2026-030G","EPOCH":"2026-03-09T15:03:31.007808","MEAN_MOTION":15.3608915,"ECCENTRICITY":0.0003583,"INCLINATION":51.8806,"RA_OF_ASC_NODE":219.4038,"ARG_OF_PERICENTER":35.8948,"MEAN_ANOMALY":324.2279,"EPHEMERIS_TYPE":0,"CLASSIFICATION_TYPE":"U","NORAD_CAT_ID":67770,"ELEMENT_SET_NO":999,"REV_AT_EPOCH":508,"BSTAR":0.00095567,"MEAN_MOTION_DOT":0.00033885,"MEAN_MOTION_DDOT":0}]
